{
  "links" : {
    "next" : "https://api.nasa.gov/neo/rest/v1/feed?start_date=2010-01-23&end_date=2010-01-23&detailed=true&api_key=t0TVs3DtDT2H8Oy2Zy8m2eVrNsAVKAexjcZXUckd",
    "prev" : "https://api.nasa.gov/neo/rest/v1/feed?start_date=2010-01-21&end_date=2010-01-21&detailed=true&api_key=t0TVs3DtDT2H8Oy2Zy8m2eVrNsAVKAexjcZXUckd",
    "self" : "https://api.nasa.gov/neo/rest/v1/feed?start_date=2010-01-22&end_date=2010-01-22&detailed=true&api_key=t0TVs3DtDT2H8Oy2Zy8m2eVrNsAVKAexjcZXUckd"
  },
  "element_count" : 7,
  "near_earth_objects" : {
    "2010-01-22" : [ {
      "links" : {
        "self" : "https://api.nasa.gov/neo/rest/v1/neo/2159686?api_key=t0TVs3DtDT2H8Oy2Zy8m2eVrNsAVKAexjcZXUckd"
      },
      "neo_reference_id" : "2159686",
      "name" : "159686 (2002 LB6)",
      "nasa_jpl_url" : "http://ssd.jpl.nasa.gov/sbdb.cgi?sstr=2159686",
      "absolute_magnitude_h" : 16.2,
      "estimated_diameter" : {
        "kilometers" : {
          "estimated_diameter_min" : 1.5295193534,
          "estimated_diameter_max" : 3.4201092472
        },
        "meters" : {
          "estimated_diameter_min" : 1529.5193534422,
          "estimated_diameter_max" : 3420.1092471982
        },
        "miles" : {
          "estimated_diameter_min" : 0.9503989702,
          "estimated_diameter_max" : 2.125156703
        },
        "feet" : {
          "estimated_diameter_min" : 5018.1082755472,
          "estimated_diameter_max" : 11220.8312225778
        }
      },
      "is_potentially_hazardous_asteroid" : false,
      "close_approach_data" : [ {
        "close_approach_date" : "2010-01-22",
        "epoch_date_close_approach" : 1264147200000,
        "relative_velocity" : {
          "kilometers_per_second" : "31.0515836566",
          "kilometers_per_hour" : "111785.7011638064",
          "miles_per_hour" : "69459.2874814774"
        },
        "miss_distance" : {
          "astronomical" : "0.4053662763",
          "lunar" : "157.6874847412",
          "kilometers" : "60641932",
          "miles" : "37681148"
        },
        "orbiting_body" : "Earth"
      } ],
      "orbital_data" : {
        "orbit_id" : "105",
        "orbit_determination_date" : "2017-04-06 09:26:45",
        "orbit_uncertainty" : "0",
        "minimum_orbit_intersection" : ".282843",
        "jupiter_tisserand_invariant" : "3.661",
        "epoch_osculation" : "2458000.5",
        "eccentricity" : ".6889411328487897",
        "semi_major_axis" : "1.803458088927335",
        "inclination" : "24.70753086123022",
        "ascending_node_longitude" : "244.7945074836006",
        "orbital_period" : "884.6215359635507",
        "perihelion_distance" : ".5609816300964234",
        "perihelion_argument" : "140.9585408327139",
        "aphelion_distance" : "3.045934547758245",
        "perihelion_time" : "2457837.353721637764",
        "mean_anomaly" : "66.39298030024987",
        "mean_motion" : ".4069536919060867",
        "equinox" : "J2000"
      }
    }, {
      "links" : {
        "self" : "https://api.nasa.gov/neo/rest/v1/neo/2162483?api_key=t0TVs3DtDT2H8Oy2Zy8m2eVrNsAVKAexjcZXUckd"
      },
      "neo_reference_id" : "2162483",
      "name" : "162483 (2000 PJ5)",
      "nasa_jpl_url" : "http://ssd.jpl.nasa.gov/sbdb.cgi?sstr=2162483",
      "absolute_magnitude_h" : 17.5,
      "estimated_diameter" : {
        "kilometers" : {
          "estimated_diameter_min" : 0.8405334021,
          "estimated_diameter_max" : 1.8794898244
        },
        "meters" : {
          "estimated_diameter_min" : 840.5334020728,
          "estimated_diameter_max" : 1879.4898243938
        },
        "miles" : {
          "estimated_diameter_min" : 0.5222830806,
          "estimated_diameter_max" : 1.1678604717
        },
        "feet" : {
          "estimated_diameter_min" : 2757.6556068564,
          "estimated_diameter_max" : 6166.3053954643
        }
      },
      "is_potentially_hazardous_asteroid" : false,
      "close_approach_data" : [ {
        "close_approach_date" : "2010-01-22",
        "epoch_date_close_approach" : 1264147200000,
        "relative_velocity" : {
          "kilometers_per_second" : "36.7165179057",
          "kilometers_per_hour" : "132179.4644606633",
          "miles_per_hour" : "82131.1789033494"
        },
        "miss_distance" : {
          "astronomical" : "0.4361111655",
          "lunar" : "169.6472320557",
          "kilometers" : "65241300",
          "miles" : "40539064"
        },
        "orbiting_body" : "Earth"
      } ],
      "orbital_data" : {
        "orbit_id" : "69",
        "orbit_determination_date" : "2017-04-06 09:26:30",
        "orbit_uncertainty" : "0",
        "minimum_orbit_intersection" : ".175623",
        "jupiter_tisserand_invariant" : "6.439",
        "epoch_osculation" : "2458000.5",
        "eccentricity" : ".3736316778541205",
        "semi_major_axis" : ".8726520185934554",
        "inclination" : "51.18026782446474",
        "ascending_node_longitude" : "124.4226107090542",
        "orbital_period" : "297.7556926470413",
        "perihelion_distance" : ".5466015807035975",
        "perihelion_argument" : "7.637604876605581",
        "aphelion_distance" : "1.198702456483313",
        "perihelion_time" : "2457902.148435780513",
        "mean_anomaly" : "118.9114565845976",
        "mean_motion" : "1.209044894489198",
        "equinox" : "J2000"
      }
    }, {
      "links" : {
        "self" : "https://api.nasa.gov/neo/rest/v1/neo/2230549?api_key=t0TVs3DtDT2H8Oy2Zy8m2eVrNsAVKAexjcZXUckd"
      },
      "neo_reference_id" : "2230549",
      "name" : "230549 (2003 BH)",
      "nasa_jpl_url" : "http://ssd.jpl.nasa.gov/sbdb.cgi?sstr=2230549",
      "absolute_magnitude_h" : 20.6,
      "estimated_diameter" : {
        "kilometers" : {
          "estimated_diameter_min" : 0.2016299194,
          "estimated_diameter_max" : 0.4508582062
        },
        "meters" : {
          "estimated_diameter_min" : 201.6299194428,
          "estimated_diameter_max" : 450.8582061718
        },
        "miles" : {
          "estimated_diameter_min" : 0.1252869847,
          "estimated_diameter_max" : 0.2801502144
        },
        "feet" : {
          "estimated_diameter_min" : 661.5155049046,
          "estimated_diameter_max" : 1479.1936371367
        }
      },
      "is_potentially_hazardous_asteroid" : true,
      "close_approach_data" : [ {
        "close_approach_date" : "2010-01-22",
        "epoch_date_close_approach" : 1264147200000,
        "relative_velocity" : {
          "kilometers_per_second" : "11.9097953392",
          "kilometers_per_hour" : "42875.2632211679",
          "miles_per_hour" : "26641.0211942862"
        },
        "miss_distance" : {
          "astronomical" : "0.0909510008",
          "lunar" : "35.379940033",
          "kilometers" : "13606077",
          "miles" : "8454424"
        },
        "orbiting_body" : "Earth"
      } ],
      "orbital_data" : {
        "orbit_id" : "45",
        "orbit_determination_date" : "2017-04-06 09:25:09",
        "orbit_uncertainty" : "0",
        "minimum_orbit_intersection" : ".0296599",
        "jupiter_tisserand_invariant" : "4.536",
        "epoch_osculation" : "2458000.5",
        "eccentricity" : ".3561233135887085",
        "semi_major_axis" : "1.45648244249605",
        "inclination" : "13.10965145432188",
        "ascending_node_longitude" : "119.7976868915565",
        "orbital_period" : "642.031457158775",
        "perihelion_distance" : ".9377950888905812",
        "perihelion_argument" : "313.3395433086216",
        "aphelion_distance" : "1.975169796101519",
        "perihelion_time" : "2457749.574849774594",
        "mean_anomaly" : "140.6987976584559",
        "mean_motion" : ".5607201889968635",
        "equinox" : "J2000"
      }
    } ]
  }
}